{
"type": "FeatureCollection",
"name": "kibera_boundary",
"crs": { "type": "name", "properties": { "name": "urn:ogc:def:crs:EPSG::32737" } },
"features": [
{ "type": "Feature", "properties": { }, "geometry": { "type": "Polygon", "coordinates": [ [ [ 249456.239069995324826, 9857084.939923107624054 ], [ 257666.878823424660368, 9857108.738762320950627 ], [ 257672.700666782999178, 9851599.764361819252372 ], [ 249461.27233539277222, 9851609.603734603151679 ], [ 249456.239069995324826, 9857084.939923107624054 ] ] ] } }
]
}
