{
"type": "FeatureCollection",
"name": "madurai_boundary",
"crs": { "type": "name", "properties": { "name": "urn:ogc:def:crs:EPSG::32643" } },
"features": [
{ "type": "Feature", "properties": { }, "geometry": { "type": "Polygon", "coordinates": [ [ [ 836018.270097953965887, 1102213.936372864525765 ], [ 847872.696292542270385, 1102325.601472633192316 ], [ 847947.045626261970028, 1094540.050925382180139 ], [ 836090.076168631203473, 1094429.14272900717333 ], [ 836018.270097953965887, 1102213.936372864525765 ] ] ] } }
]
}
